CHINASAT 9C             
1 64470U 25132A   26150.16483479 -.00000235  00000+0  00000+0 0  9999
2 64470   0.0532 116.2817 0003219 309.0836 333.8787  1.00271673  3967
STARLINK-34493          
1 64472U 25133A   26149.73498302  .00026137  00000+0  89088-3 0  9999
2 64472  53.1581 100.5792 0001501  84.9621 275.1551 15.30222453 53594
STARLINK-34492          
1 64473U 25133B   26150.05839593  .00036852  00000+0  12498-2 0  9993
2 64473  53.1603  99.0379 0001103 109.1197 250.9923 15.30209393 53647
STARLINK-34474          
1 64474U 25133C   26150.05523111  .00027212  00000+0  92732-3 0  9990
2 64474  53.1610  99.0206 0001060 110.0537 250.0578 15.30207233 53622
STARLINK-34523          
1 64475U 25133D   26150.16668980  .00025056  00000+0  75110-3 0  9992
2 64475  53.1594  95.8731 0001608  89.2369  60.7877 15.34362546  5896
STARLINK-34496          
1 64476U 25133E   26150.07298470  .00036605  00000+0  10546-2 0  9999
2 64476  53.1596  96.2938 0001260  82.5450 277.5696 15.35418224 53676
STARLINK-34375          
1 64477U 25133F   26149.87159894  .00052415  00000+0  15011-2 0  9991
2 64477  53.1593  97.1679 0001422  88.8780 271.2386 15.35440339 53658
STARLINK-34490          
1 64478U 25133G   26150.02568179  .00041615  00000+0  14084-2 0  9990
2 64478  53.1580  98.8354 0001458 126.5100 233.6035 15.30221978 53641
STARLINK-34528          
1 64479U 25133H   26149.86981243  .00033277  00000+0  95997-3 0  9990
2 64479  53.1599  97.1583 0001538 110.1117 250.0052 15.35422669 53630
STARLINK-34518          
1 64480U 25133J   26150.02251632  .00029711  00000+0  10111-2 0  9996
2 64480  53.1586  98.8112 0001148  91.6772 268.4360 15.30206554 53487
STARLINK-34526          
1 64481U 25133K   26150.01934734  .00027928  00000+0  95124-3 0  9993
2 64481  53.1583  98.7938 0002471 134.9211 225.1990 15.30208593 53539
STARLINK-34527          
1 64482U 25133L   26150.00984389  .00037103  00000+0  12569-2 0  9991
2 64482  53.1591  98.7358 0001541  98.9879 261.1296 15.30242985 53645
STARLINK-34420          
1 64483U 25133M   26150.06883641  .00026985  00000+0  91986-3 0  9994
2 64483  53.1584  98.3920 0001209  90.4332 269.6807 15.30201793 53655
STARLINK-34509          
1 64484U 25133N   26149.86983708  .00039208  00000+0  13286-2 0  9994
2 64484  53.1589  99.9919 0001974 102.1190 258.0032 15.30207029 53614
STARLINK-34409          
1 64485U 25133P   26149.86772822  .00037306  00000+0  12644-2 0  9992
2 64485  53.1602  99.9808 0001062  87.2864 272.8258 15.30224764 53616
STARLINK-34520          
1 64486U 25133Q   26150.06050911  .00025053  00000+0  85500-3 0  9993
2 64486  53.1593  99.0494 0001496  78.3486 281.7683 15.30204708 53640
STARLINK-34477          
1 64487U 25133R   26150.05734014  .00028572  00000+0  97260-3 0  9991
2 64487  53.1592  99.0243 0001723  98.9779 261.1417 15.30216633 53634
STARLINK-34217          
1 64488U 25133S   26150.11949596  .00027773  00000+0  94679-3 0  9995
2 64488  53.1600  98.7052 0001359  71.8710 288.2439 15.30183864 53542
STARLINK-34307          
1 64489U 25133T   26150.11632036  .00029221  00000+0  99428-3 0  9991
2 64489  53.1596  98.6814 0001417 119.1003 241.0140 15.30218245 53636
STARLINK-34505          
1 64490U 25133U   26150.11315750  .00031318  00000+0  10645-2 0  9997
2 64490  53.1598  98.6612 0001558 123.7634 236.3515 15.30218392 53639
STARLINK-34530          
1 64491U 25133V   26150.00933271  .00042241  00000+0  12153-2 0  9993
2 64491  53.1596  96.6002 0001281  92.2306 267.8844 15.35393937 53647
STARLINK-34522          
1 64492U 25133W   26150.07085095  .00059135  00000+0  16926-2 0  9995
2 64492  53.1591  96.2728 0001222 102.8316 257.2823 15.35405540 53686
STARLINK-34462          
1 64493U 25133X   26150.00155196  .00047090  00000+0  13519-2 0  9991
2 64493  53.1569  96.5503 0000794  66.1052 294.0034 15.35412955 53678
STARLINK-34226          
1 64494U 25133Y   26150.16668980  .00015060  00000+0  49621-3 0  9995
2 64494  53.1591  98.2612 0001401  87.7878 285.4597 15.31692032  5919
STARLINK-34364          
1 64495U 25133Z   26150.01551328  .00037645  00000+0  11193-2 0  9992
2 64495  53.1586  95.9077 0001160  58.0889 302.0226 15.34410451 53686
STARLINK-34363          
1 64497U 25133AB  26150.05969465  .00051108  00000+0  15144-2 0  9993
2 64497  53.1601  96.2012 0001070  79.1415 280.9708 15.34380174 53685
STARLINK-34427          
1 64498U 25133AC  26150.02463345  .00027452  00000+0  93456-3 0  9995
2 64498  53.1573  98.8184 0001714 139.3551 220.7578 15.30234784 53641
KUIPER-00039            
1 64500U 25134A   26150.20632863  .00005194  00000+0  70971-3 0  9999
2 64500  51.9015 232.6375 0000401  92.9590 267.1418 14.79940486 52148
KUIPER-00040            
1 64501U 25134B   26149.68908124  .00003344  00000+0  46729-3 0  9995
2 64501  51.8987 245.0169 0000493 177.7162 182.3803 14.79939795 51925
KUIPER-00041            
1 64502U 25134C   26149.65261070  .00002053  00000+0  29818-3 0  9991
2 64502  51.8983 247.5604 0000779 123.5108 236.5929 14.79933231 51884
