OBJECT_NAME,OBJECT_ID,EPOCH,MEAN_MOTION,ECCENTRICITY,INCLINATION,RA_OF_ASC_NODE,ARG_OF_PERICENTER,MEAN_ANOMALY,EPHEMERIS_TYPE,CLASSIFICATION_TYPE,NORAD_CAT_ID,ELEMENT_SET_NO,REV_AT_EPOCH,BSTAR,MEAN_MOTION_DOT,MEAN_MOTION_DDOT
CHINASAT 9C,2025-132A,2026-05-30T03:57:21.725856,1.00271673,.0003219,0.0532,116.2817,309.0836,333.8787,0,U,64470,999,396,0,-.235E-5,0
STARLINK-34493,2025-133A,2026-05-29T17:38:22.532928,15.30222453,.00015018,53.1581,100.5792,84.9621,275.1551,0,U,64472,999,5359,.89088322E-3,.26137E-3,0
STARLINK-34492,2025-133B,2026-05-30T01:24:05.408352,15.30209393,.0001103,53.1603,99.0379,109.1197,250.9923,0,U,64473,999,5364,.12498E-2,.36852E-3,0
STARLINK-34474,2025-133C,2026-05-30T01:19:31.967904,15.30207233,.000106,53.1610,99.0206,110.0537,250.0578,0,U,64474,999,5362,.92732E-3,.27212E-3,0
STARLINK-34523,2025-133D,2026-05-30T04:00:01.998720,15.34362546,.0001608,53.1594,95.8731,89.2369,60.7877,0,U,64475,999,589,.7511E-3,.25056E-3,0
STARLINK-34496,2025-133E,2026-05-30T01:45:05.878080,15.35418224,.000126,53.1596,96.2938,82.5450,277.5696,0,U,64476,999,5367,.10546E-2,.36605E-3,0
STARLINK-34375,2025-133F,2026-05-29T20:55:06.148416,15.35440339,.00014221,53.1593,97.1679,88.8780,271.2386,0,U,64477,999,5365,.15011377E-2,.52415E-3,0
STARLINK-34490,2025-133G,2026-05-30T00:36:58.906656,15.30221978,.0001458,53.1580,98.8354,126.5100,233.6035,0,U,64478,999,5364,.14084E-2,.41615E-3,0
STARLINK-34528,2025-133H,2026-05-29T20:52:31.793952,15.35422669,.00015389,53.1599,97.1583,110.1117,250.0052,0,U,64479,999,5363,.95996725E-3,.33277E-3,0
STARLINK-34518,2025-133J,2026-05-30T00:32:25.410048,15.30206554,.0001148,53.1586,98.8112,91.6772,268.4360,0,U,64480,999,5348,.10111E-2,.29711E-3,0
STARLINK-34526,2025-133K,2026-05-30T00:27:51.610176,15.30208593,.0002471,53.1583,98.7938,134.9211,225.1990,0,U,64481,999,5353,.95124E-3,.27928E-3,0
STARLINK-34527,2025-133L,2026-05-30T00:14:10.512096,15.30242985,.0001541,53.1591,98.7358,98.9879,261.1296,0,U,64482,999,5364,.12569E-2,.37103E-3,0
STARLINK-34420,2025-133M,2026-05-30T01:39:07.465824,15.30201793,.0001209,53.1584,98.3920,90.4332,269.6807,0,U,64483,999,5365,.91986E-3,.26985E-3,0
STARLINK-34509,2025-133N,2026-05-29T20:52:33.923712,15.30207029,.00019745,53.1589,99.9919,102.1190,258.0032,0,U,64484,999,5361,.13286405E-2,.39208E-3,0
STARLINK-34409,2025-133P,2026-05-29T20:49:31.718208,15.30224764,.00010622,53.1602,99.9808,87.2864,272.8258,0,U,64485,999,5361,.12644114E-2,.37306E-3,0
STARLINK-34520,2025-133Q,2026-05-30T01:27:07.987104,15.30204708,.0001496,53.1593,99.0494,78.3486,281.7683,0,U,64486,999,5364,.855E-3,.25053E-3,0
STARLINK-34477,2025-133R,2026-05-30T01:22:34.188096,15.30216633,.0001723,53.1592,99.0243,98.9779,261.1417,0,U,64487,999,5363,.9726E-3,.28572E-3,0
STARLINK-34217,2025-133S,2026-05-30T02:52:04.450944,15.30183864,.0001359,53.1600,98.7052,71.8710,288.2439,0,U,64488,999,5354,.94679E-3,.27773E-3,0
STARLINK-34307,2025-133T,2026-05-30T02:47:30.079104,15.30218245,.0001417,53.1596,98.6814,119.1003,241.0140,0,U,64489,999,5363,.99428E-3,.29221E-3,0
STARLINK-34505,2025-133U,2026-05-30T02:42:56.808000,15.30218392,.0001558,53.1598,98.6612,123.7634,236.3515,0,U,64490,999,5363,.10645E-2,.31318E-3,0
STARLINK-34530,2025-133V,2026-05-30T00:13:26.346144,15.35393937,.0001281,53.1596,96.6002,92.2306,267.8844,0,U,64491,999,5364,.12153E-2,.42241E-3,0
STARLINK-34522,2025-133W,2026-05-30T01:42:01.522080,15.35405540,.0001222,53.1591,96.2728,102.8316,257.2823,0,U,64492,999,5368,.16926E-2,.59135E-3,0
STARLINK-34462,2025-133X,2026-05-30T00:02:14.089344,15.35412955,.0000794,53.1569,96.5503,66.1052,294.0034,0,U,64493,999,5367,.13519E-2,.4709E-3,0
STARLINK-34226,2025-133Y,2026-05-30T04:00:01.998720,15.31692032,.0001401,53.1591,98.2612,87.7878,285.4597,0,U,64494,999,591,.49621E-3,.1506E-3,0
STARLINK-34364,2025-133Z,2026-05-30T00:22:20.347392,15.34410451,.000116,53.1586,95.9077,58.0889,302.0226,0,U,64495,999,5368,.11193E-2,.37645E-3,0
STARLINK-34363,2025-133AB,2026-05-30T01:25:57.617760,15.34380174,.000107,53.1601,96.2012,79.1415,280.9708,0,U,64497,999,5368,.15144E-2,.51108E-3,0
STARLINK-34427,2025-133AC,2026-05-30T00:35:28.330080,15.30234784,.0001714,53.1573,98.8184,139.3551,220.7578,0,U,64498,999,5364,.93456E-3,.27452E-3,0
KUIPER-00039,2025-134A,2026-05-30T04:57:06.793632,14.79940486,.0000401,51.9015,232.6375,92.9590,267.1418,0,U,64500,999,5214,.70971E-3,.5194E-4,0
KUIPER-00040,2025-134B,2026-05-29T16:32:16.619136,14.79939795,.00004935,51.8987,245.0169,177.7162,182.3803,0,U,64501,999,5192,.46728537E-3,.3344E-4,0
KUIPER-00041,2025-134C,2026-05-29T15:39:45.564480,14.79933231,.00007794,51.8983,247.5604,123.5108,236.5929,0,U,64502,999,5188,.29818493E-3,.2053E-4,0
